{"fetched_at": "2026-06-04T18:22:40.321044+00:00", "line1": "1 44349U 19036L   26152.24399269  .00002945  00000+0  22747-3 0  9997", "line2": "2 44349  23.9966 139.8706 0000767  22.0039 338.0495 14.96431318382264"}
{"fetched_at": "2026-06-22T01:52:44.768817+00:00", "line1": "1 44349U 19036L   26170.71402264  .00002196  00000+0  16266-3 0  9996", "line2": "2 44349  23.9991  15.3581 0000595 182.6782 177.3716 14.96514586385035"}
{"fetched_at": "2026-06-24T08:25:59.567008+00:00", "line1": "1 44349U 19036L   26173.51445031  .00002064  00000+0  15125-3 0  9993", "line2": "2 44349  23.9991 356.4785 0000465 231.5844 128.4615 14.96524300385455"}
{"fetched_at": "2026-06-24T08:26:28.696291+00:00", "line1": "1 44349U 19036L   26170.71402264  .00002196  00000+0  16266-3 0  9996", "line2": "2 44349  23.9991  15.3581 0000595 182.6782 177.3716 14.96514586385035"}
